start=new Date('2022-08-21T00:00:00.000Z').valueOf();
sats=[{"TLE_LINE1":"1 53281U 22086AR  22232.91667824  .00071734  00000-0  51195-3 0  9997","ELEMENT_SET_NO":"999","ARG_OF_PERICENTER":"19.3955","PERIOD":"91.535","EPOCH":"2022-08-20T22:00:00.999936","LAUNCH_DATE":"2022-07-24","SITE":"AFETR","APOAPSIS":"351.868","OBJECT_NAME":"STARLINK-4182","GP_ID":"210622682","TIME_SYSTEM":"UTC","FILE":"3541760","DECAY_DATE":null,"MEAN_ELEMENT_THEORY":"SGP4","MEAN_MOTION_DOT":"0.00071734","BSTAR":"0.00051195000000","TLE_LINE2":"2 53281  53.2187 267.8005 0002968  19.3955 335.5078 15.73161139  1304","INCLINATION":"53.2187","ECCENTRICITY":"0.00029680","PERIAPSIS":"347.874","OBJECT_TYPE":"PAYLOAD","NORAD_CAT_ID":"53281","RCS_SIZE":"LARGE","REF_FRAME":"TEME","EPHEMERIS_TYPE":"0","MEAN_MOTION":"15.73161139","SEMIMAJOR_AXIS":"6728.006","OBJECT_ID":"2022-086AR","RA_OF_ASC_NODE":"267.8005","COUNTRY_CODE":"US","CLASSIFICATION_TYPE":"U","MEAN_MOTION_DDOT":"0.0000000000000","CENTER_NAME":"EARTH","MEAN_ANOMALY":"335.5078","REV_AT_EPOCH":"130"},{"TIME_SYSTEM":"UTC","GP_ID":"210623498","OBJECT_NAME":"STARLINK-4164","MEAN_MOTION_DOT":"-0.00021815","MEAN_ELEMENT_THEORY":"SGP4","DECAY_DATE":null,"FILE":"3541760","LAUNCH_DATE":"2022-07-24","PERIOD":"91.532","EPOCH":"2022-08-20T22:00:00.999936","ARG_OF_PERICENTER":"22.4112","ELEMENT_SET_NO":"999","TLE_LINE1":"1 53282U 22086AS  22232.91667824 -.00021815  00000-0 -15120-3 0  9993","APOAPSIS":"351.215","SITE":"AFETR","ECCENTRICITY":"0.00022820","PERIAPSIS":"348.145","BSTAR":"-0.00015120000000","TLE_LINE2":"2 53282  53.2189 267.8030 0002282  22.4112 331.3768 15.73228183  1307","INCLINATION":"53.2189","MEAN_MOTION":"15.73228183","OBJECT_ID":"2022-086AS","SEMIMAJOR_AXIS":"6727.815","RCS_SIZE":"LARGE","NORAD_CAT_ID":"53282","OBJECT_TYPE":"PAYLOAD","EPHEMERIS_TYPE":"0","REF_FRAME":"TEME","MEAN_MOTION_DDOT":"0.0000000000000","REV_AT_EPOCH":"130","MEAN_ANOMALY":"331.3768","CENTER_NAME":"EARTH","CLASSIFICATION_TYPE":"U","RA_OF_ASC_NODE":"267.8030","COUNTRY_CODE":"US"},{"REF_FRAME":"TEME","EPHEMERIS_TYPE":"0","OBJECT_TYPE":"PAYLOAD","NORAD_CAT_ID":"53283","RCS_SIZE":"LARGE","SEMIMAJOR_AXIS":"6727.803","OBJECT_ID":"2022-086AT","MEAN_MOTION":"15.73232390","RA_OF_ASC_NODE":"267.7970","COUNTRY_CODE":"US","CLASSIFICATION_TYPE":"U","CENTER_NAME":"EARTH","MEAN_ANOMALY":"336.3884","REV_AT_EPOCH":"130","MEAN_MOTION_DDOT":"0.0000000000000","SITE":"AFETR","APOAPSIS":"351.252","TLE_LINE1":"1 53283U 22086AT  22232.91667824 -.00034125  00000-0 -23933-3 0  9993","ELEMENT_SET_NO":"999","PERIOD":"91.531","EPOCH":"2022-08-20T22:00:00.999936","ARG_OF_PERICENTER":"19.2022","LAUNCH_DATE":"2022-07-24","DECAY_DATE":null,"FILE":"3541760","MEAN_MOTION_DOT":"-0.00034125","MEAN_ELEMENT_THEORY":"SGP4","OBJECT_NAME":"STARLINK-4175","TIME_SYSTEM":"UTC","GP_ID":"210622795","INCLINATION":"53.2187","BSTAR":"-0.00023933000000","TLE_LINE2":"2 53283  53.2187 267.7970 0002355  19.2022 336.3884 15.73232390  1302","PERIAPSIS":"348.083","ECCENTRICITY":"0.00023550"},{"PERIOD":"91.535","ARG_OF_PERICENTER":"25.2215","EPOCH":"2022-08-20T22:00:00.999936","LAUNCH_DATE":"2022-07-24","TLE_LINE1":"1 53284U 22086AU  22232.91667824  .00073104  00000-0  52155-3 0  9990","ELEMENT_SET_NO":"999","APOAPSIS":"351.549","SITE":"AFETR","GP_ID":"210622955","TIME_SYSTEM":"UTC","OBJECT_NAME":"STARLINK-4172","FILE":"3541760","DECAY_DATE":null,"MEAN_ELEMENT_THEORY":"SGP4","MEAN_MOTION_DOT":"0.00073104","BSTAR":"0.00052155000000","TLE_LINE2":"2 53284  53.2186 267.8009 0002501  25.2215 329.0853 15.73162804  1307","INCLINATION":"53.2186","ECCENTRICITY":"0.00025010","PERIAPSIS":"348.184","RCS_SIZE":"LARGE","OBJECT_TYPE":"PAYLOAD","NORAD_CAT_ID":"53284","REF_FRAME":"TEME","EPHEMERIS_TYPE":"0","MEAN_MOTION":"15.73162804","OBJECT_ID":"2022-086AU","SEMIMAJOR_AXIS":"6728.001","RA_OF_ASC_NODE":"267.8009","COUNTRY_CODE":"US","CLASSIFICATION_TYPE":"U","MEAN_MOTION_DDOT":"0.0000000000000","REV_AT_EPOCH":"130","CENTER_NAME":"EARTH","MEAN_ANOMALY":"329.0853"},{"RCS_SIZE":"LARGE","NORAD_CAT_ID":"53285","OBJECT_TYPE":"PAYLOAD","EPHEMERIS_TYPE":"0","REF_FRAME":"TEME","MEAN_MOTION":"15.73167788","OBJECT_ID":"2022-086AV","SEMIMAJOR_AXIS":"6727.987","CLASSIFICATION_TYPE":"U","COUNTRY_CODE":"US","RA_OF_ASC_NODE":"267.7972","MEAN_MOTION_DDOT":"0.0000000000000","REV_AT_EPOCH":"130","MEAN_ANOMALY":"332.0902","CENTER_NAME":"EARTH","LAUNCH_DATE":"2022-07-24","PERIOD":"91.535","EPOCH":"2022-08-20T22:00:00.999936","ARG_OF_PERICENTER":"25.2059","ELEMENT_SET_NO":"999","TLE_LINE1":"1 53285U 22086AV  22232.91667824  .00073626  00000-0  52510-3 0  9995","APOAPSIS":"351.459","SITE":"AFETR","GP_ID":"210623096","TIME_SYSTEM":"UTC","OBJECT_NAME":"STARLINK-4173","MEAN_ELEMENT_THEORY":"SGP4","MEAN_MOTION_DOT":"0.00073626","DECAY_DATE":null,"FILE":"3541760","BSTAR":"0.00052510000000","TLE_LINE2":"2 53285  53.2191 267.7972 0002388  25.2059 332.0902 15.73167788  1306","INCLINATION":"53.2191","ECCENTRICITY":"0.00023880","PERIAPSIS":"348.245"},{"SEMIMAJOR_AXIS":"6728.010","OBJECT_ID":"2022-086AW","MEAN_MOTION":"15.73159675","REF_FRAME":"TEME","EPHEMERIS_TYPE":"0","OBJECT_TYPE":"PAYLOAD","NORAD_CAT_ID":"53286","RCS_SIZE":"LARGE","CENTER_NAME":"EARTH","MEAN_ANOMALY":"331.5213","REV_AT_EPOCH":"130","MEAN_MOTION_DDOT":"0.0000000000000","COUNTRY_CODE":"US","RA_OF_ASC_NODE":"267.7971","CLASSIFICATION_TYPE":"U","FILE":"3541760","DECAY_DATE":null,"MEAN_ELEMENT_THEORY":"SGP4","MEAN_MOTION_DOT":"0.00071632","OBJECT_NAME":"STARLINK-4165","GP_ID":"210623348","TIME_SYSTEM":"UTC","SITE":"AFETR","APOAPSIS":"351.295","TLE_LINE1":"1 53286U 22086AW  22232.91667824  .00071632  00000-0  51131-3 0  9999","ELEMENT_SET_NO":"999","ARG_OF_PERICENTER":"24.5443","PERIOD":"91.536","EPOCH":"2022-08-20T22:00:00.999936","LAUNCH_DATE":"2022-07-24","PERIAPSIS":"348.456","ECCENTRICITY":"0.00021100","INCLINATION":"53.2185","BSTAR":"0.00051131000000","TLE_LINE2":"2 53286  53.2185 267.7971 0002110  24.5443 331.5213 15.73159675  1306"},{"ARG_OF_PERICENTER":"22.7287","PERIOD":"91.535","EPOCH":"2022-08-20T22:00:00.999936","LAUNCH_DATE":"2022-07-24","TLE_LINE1":"1 53287U 22086AX  22232.91667824  .00071483  00000-0  50989-3 0  9994","ELEMENT_SET_NO":"999","APOAPSIS":"351.613","SITE":"AFETR","GP_ID":"210623209","TIME_SYSTEM":"UTC","OBJECT_NAME":"STARLINK-4107","DECAY_DATE":null,"FILE":"3541760","MEAN_MOTION_DOT":"0.00071483","MEAN_ELEMENT_THEORY":"SGP4","BSTAR":"0.00050989000000","TLE_LINE2":"2 53287  53.2174 267.7935 0002652  22.7287 335.8010 15.73175828  1302","INCLINATION":"53.2174","ECCENTRICITY":"0.00026520","PERIAPSIS":"348.045","RCS_SIZE":"LARGE","OBJECT_TYPE":"PAYLOAD","NORAD_CAT_ID":"53287","REF_FRAME":"TEME","EPHEMERIS_TYPE":"0","MEAN_MOTION":"15.73175828","OBJECT_ID":"2022-086AX","SEMIMAJOR_AXIS":"6727.964","COUNTRY_CODE":"US","RA_OF_ASC_NODE":"267.7935","CLASSIFICATION_TYPE":"U","MEAN_MOTION_DDOT":"0.0000000000000","REV_AT_EPOCH":"130","CENTER_NAME":"EARTH","MEAN_ANOMALY":"335.8010"},{"BSTAR":"0.00050746000000","TLE_LINE2":"2 53288  53.2182 267.7946 0002426  28.4536 328.2083 15.73137271  1309","INCLINATION":"53.2182","ECCENTRICITY":"0.00024260","PERIAPSIS":"348.307","ELEMENT_SET_NO":"999","TLE_LINE1":"1 53288U 22086AY  22232.91667824  .00071016  00000-0  50746-3 0  9998","LAUNCH_DATE":"2022-07-24","ARG_OF_PERICENTER":"28.4536","PERIOD":"91.537","EPOCH":"2022-08-20T22:00:00.999936","SITE":"AFETR","APOAPSIS":"351.571","OBJECT_NAME":"STARLINK-4162","TIME_SYSTEM":"UTC","GP_ID":"210622541","MEAN_MOTION_DOT":"0.00071016","MEAN_ELEMENT_THEORY":"SGP4","FILE":"3541760","DECAY_DATE":null,"CLASSIFICATION_TYPE":"U","COUNTRY_CODE":"US","RA_OF_ASC_NODE":"267.7946","MEAN_MOTION_DDOT":"0.0000000000000","MEAN_ANOMALY":"328.2083","CENTER_NAME":"EARTH","REV_AT_EPOCH":"130","NORAD_CAT_ID":"53288","OBJECT_TYPE":"PAYLOAD","RCS_SIZE":"LARGE","EPHEMERIS_TYPE":"0","REF_FRAME":"TEME","MEAN_MOTION":"15.73137271","SEMIMAJOR_AXIS":"6728.074","OBJECT_ID":"2022-086AY"},{"ELEMENT_SET_NO":"999","TLE_LINE1":"1 53289U 22086AZ  22232.91667824  .00004130  00000-0  33820-4 0  9997","LAUNCH_DATE":"2022-07-24","PERIOD":"91.532","ARG_OF_PERICENTER":"22.8579","EPOCH":"2022-08-20T22:00:00.999936","SITE":"AFETR","APOAPSIS":"351.346","OBJECT_NAME":"STARLINK-4176","TIME_SYSTEM":"UTC","GP_ID":"210622683","MEAN_ELEMENT_THEORY":"SGP4","MEAN_MOTION_DOT":"0.00004130","DECAY_DATE":null,"FILE":"3541760","TLE_LINE2":"2 53289  53.2188 267.7910 0002416  22.8579 336.9169 15.73214039  1300","BSTAR":"0.00003382000000","INCLINATION":"53.2188","ECCENTRICITY":"0.00024160","PERIAPSIS":"348.095","NORAD_CAT_ID":"53289","OBJECT_TYPE":"PAYLOAD","RCS_SIZE":"LARGE","EPHEMERIS_TYPE":"0","REF_FRAME":"TEME","MEAN_MOTION":"15.73214039","SEMIMAJOR_AXIS":"6727.855","OBJECT_ID":"2022-086AZ","CLASSIFICATION_TYPE":"U","COUNTRY_CODE":"US","RA_OF_ASC_NODE":"267.7910","MEAN_MOTION_DDOT":"0.0000000000000","MEAN_ANOMALY":"336.9169","CENTER_NAME":"EARTH","REV_AT_EPOCH":"130"},{"ECCENTRICITY":"0.00023770","PERIAPSIS":"348.210","TLE_LINE2":"2 53290  53.2185 267.7932 0002377  20.2972 337.6173 15.73182945  1301","BSTAR":"0.00051884000000","INCLINATION":"53.2185","TIME_SYSTEM":"UTC","GP_ID":"210623499","OBJECT_NAME":"STARLINK-4149","MEAN_ELEMENT_THEORY":"SGP4","MEAN_MOTION_DOT":"0.00072780","FILE":"3541760","DECAY_DATE":null,"LAUNCH_DATE":"2022-07-24","ARG_OF_PERICENTER":"20.2972","PERIOD":"91.534","EPOCH":"2022-08-20T22:00:00.999936","ELEMENT_SET_NO":"999","TLE_LINE1":"1 53290U 22086BA  22232.91667824  .00072780  00000-0  51884-3 0  9994","APOAPSIS":"351.408","SITE":"AFETR","MEAN_MOTION_DDOT":"0.0000000000000","REV_AT_EPOCH":"130","MEAN_ANOMALY":"337.6173","CENTER_NAME":"EARTH","CLASSIFICATION_TYPE":"U","COUNTRY_CODE":"US","RA_OF_ASC_NODE":"267.7932","MEAN_MOTION":"15.73182945","OBJECT_ID":"2022-086BA","SEMIMAJOR_AXIS":"6727.944","RCS_SIZE":"LARGE","NORAD_CAT_ID":"53290","OBJECT_TYPE":"PAYLOAD","EPHEMERIS_TYPE":"0","REF_FRAME":"TEME"}];
